satname,norad_id,inclination_deg,eccentricity,mean_motion_rev_per_day,perigee_km,apogee_km,l1,l2
STARLINK-1169,45061,53.0532,0.0001357,15.06405559,546.2547529689882,548.1342879436388,1 45061U 20006T   25267.10233016  .00001042  00000+0  88820-4 0  9998,2 45061  53.0532 314.4601 0001357  87.4617 272.6527 15.06405559311358
STARLINK-1171,45062,53.0576,0.0001376,15.06410493,546.2264750547747,548.1323221276671,1 45062U 20006U   25267.15392592  .00001550  00000+0  12287-3 0  9996,2 45062  53.0576 314.2268 0001376  92.7069 267.4078 15.06410493311362
STARLINK-1133,45064,53.0537,0.0001469,15.06421092,546.1295905432607,548.1642389574145,1 45064U 20006W   25267.23317905  .00005945  00000+0  41746-3 0  9996,2 45064  53.0537 293.8693 0001469  80.7814 279.3341 15.06421092311657
STARLINK-1150,45067,53.0398,9.25e-05,15.99625636,274.8411451942802,276.07206001076247,1 45067U 20006Z   25267.33336806  .00578960  15830-3  11331-2 0  9990,2 45067  53.0398 237.0196 0000925  93.3994  71.9647 15.99625636  6027
STARLINK-1167,45071,53.0552,0.0001462,15.06399172,546.2016093100028,548.2265819703689,1 45071U 20006AD  25266.79456284  .00001504  00000+0  11986-3 0  9998,2 45071  53.0552 295.8429 0001462  92.7890 267.3266 15.06399172311589
STARLINK-1168,45072,53.0555,0.0001351,15.06403628,546.2648255751574,548.1360517510857,1 45072U 20006AE  25267.26267218  .00000288  00000+0  38217-4 0  9994,2 45072  53.0555 293.7413 0001351  89.7396 270.3748 15.06403628311656
STARLINK-1172,45074,53.0552,0.0001529,15.06409813,546.1226014738713,548.2403638658725,1 45074U 20006AG  25267.27371860  .00000787  00000+0  71742-4 0  9990,2 45074  53.0552 293.6909 0001529  89.0898 271.0266 15.06409813311656
STARLINK-1153,45080,53.0553,0.0001559,15.06412425,546.0938214611297,548.253133267971,1 45080U 20006AN  25267.31794765  .00000524  00000+0  54076-4 0  9995,2 45080  53.0553 293.4936 0001559  99.1151 261.0014 15.06412425311663
STARLINK-1151,45081,53.0548,0.0001347,15.06405359,546.2622911854342,548.1279756621789,1 45081U 20006AP  25267.23687618  .00000835  00000+0  74947-4 0  9999,2 45081  53.0548 293.9288 0001347  93.9398 266.1745 15.06405359311657
STARLINK-1190,45083,53.0479,0.0008564,15.74084986,341.47661163916746,352.99583089255066,1 45083U 20006AR  25267.33336806  .00115562  00000+0  78449-3 0  9996,2 45083  53.0479 264.2030 0008564  43.6909 145.0198 15.74084986  5994
STARLINK-1173,45084,53.0443,0.0008342,15.84028859,313.4738282365306,324.6474327632559,1 45084U 20006AS  25267.33336806  .00361725  00000+0  15167-2 0  9998,2 45084  53.0443 227.9118 0008342  32.3713 129.1539 15.84028859  6004
STARLINK-1179,45085,53.038,0.0001094,15.99249595,275.7715436591052,277.2275781386297,1 45085U 20006AT  25267.33336806  .01381723  10330-2  27897-2 0  9993,2 45085  53.0380 218.2130 0001094  68.0036 206.3170 15.99249595  5920
STARLINK-1185,45087,53.0545,0.00013,15.06395868,546.323924993254,548.1245189109613,1 45087U 20006AV  25266.41674955  .00000605  00000+0  59485-4 0  9999,2 45087  53.0545 277.5350 0001300  92.4420 267.6717 15.06395868311813
STARLINK-1183,45088,53.0534,0.0001324,15.06408819,546.2676165348566,548.1014416757644,1 45088U 20006AW  25267.23501444  .00001659  00000+0  13023-3 0  9990,2 45088  53.0534 273.8627 0001324  73.7674 286.3461 15.06408819311935
STARLINK-1176,45090,53.0475,0.0004276,15.81572862,323.12545952070104,328.8588307656273,1 45090U 20006AY  25267.33336806  .00334141  00000+0  15794-2 0  9993,2 45090  53.0475 225.6917 0004276  21.2989 270.1465 15.81572862  6002
STARLINK-1142,45093,53.0393,0.0005995,15.50827913,410.23548144351207,418.37962246130337,1 45093U 20006BB  25267.13602404  .00127516  00000+0  21440-2 0  9995,2 45093  53.0393 220.7567 0005995  76.1554 284.0121 15.50827913312679
STARLINK-1146,45094,53.0452,0.000141,16.0109711,270.44177892462267,272.3169425383485,1 45094U 20006BC  25267.28745365  .01200578  76814-3  21726-2 0  9994,2 45094  53.0452 219.4814 0001410  52.8588 307.2571 16.01097110312708
STARLINK-1147,45095,53.0402,0.0006822,15.93385433,288.26608127229883,297.3679309182153,1 45095U 20006BD  25267.33336806  .00425862  82014-4  11722-2 0  9996,2 45095  53.0402 222.2348 0006822  35.2093 127.5959 15.93385433  6022
STARLINK-1152,45096,53.0468,0.0006114,15.20840723,499.09608528284934,507.51071060145296,1 45096U 20006BE  25267.17628381  .00052963  00000+0  23660-2 0  9993,2 45096  53.0468 260.5913 0006114  49.7504 310.4025 15.20840723312114
STARLINK-1184,45098,53.0546,0.0001371,15.06403294,546.2519984179116,548.1509262242798,1 45098U 20006BG  25267.31611405 -.00000575  00000+0 -19677-4 0  9999,2 45098  53.0546 273.4992 0001371  87.4858 272.6288 15.06403294311946
STARLINK-1193,45100,53.0543,0.0001187,15.06383781,546.4392225089923,548.0833120576463,1 45100U 20006BJ  25267.31243135 -.00001220  00000+0 -63038-4 0  9992,2 45100  53.0543 273.5133 0001187  85.4796 274.6328 15.06383781311944
STARLINK-1143,45179,53.0556,0.0003754,15.33999041,461.3267355262187,466.46373332782696,1 45179U 20012B   25266.68627294  .00130768  00000+0  38625-2 0  9996,2 45179  53.0556  48.3109 0003754 193.8849 166.2049 15.33999041310060
STARLINK-1201,45182,53.0309,0.0005213,16.25674961,200.75726879612648,207.6200015033328,1 45182U 20012E   25267.69037755  .03309713  11990-4  10443-2 0  9993,2 45182  53.0309 350.0337 0005213 348.1292  11.9625 16.25674961310806
STARLINK-1202,45183,53.0545,0.0001304,15.063974,546.3164600842047,548.122593066335,1 45183U 20012F   25267.17605695  .00000491  00000+0  51873-4 0  9998,2 45183  53.0545  74.1276 0001304  91.6840 268.4298 15.06397400309745
STARLINK-1216,45185,53.0527,0.0001084,15.06405076,546.4452946757565,547.9467068703243,1 45185U 20012H   25267.16867686  .00000336  00000+0  41450-4 0  9997,2 45185  53.0527  74.1580 0001084  84.0245 276.0868 15.06405076309685
STARLINK-1225,45187,53.0539,0.0001317,15.06408998,546.2719157283664,548.0960452746303,1 45187U 20012K   25266.65633633  .00003601  00000+0  26046-3 0  9996,2 45187  53.0539  76.4602 0001317  93.9381 266.1758 15.06408998309650
STARLINK-1230,45189,53.0538,0.0001328,15.06400228,546.291172955508,548.1305453468985,1 45189U 20012M   25267.19079402  .00000490  00000+0  51802-4 0  9998,2 45189  53.0538  74.0605 0001328  85.9355 274.1786 15.06400228306961
STARLINK-1234,45190,53.056,0.0001207,15.06390438,546.404971137903,548.0767573543317,1 45190U 20012N   25267.07653954 -.00001196  00000+0 -61417-4 0  9996,2 45190  53.0560  34.5727 0001207  85.6416 274.4711 15.06390438310186
STARLINK-1240,45194,53.0389,0.0004655,16.07608177,250.32583846959824,256.49981135659255,1 45194U 20012S   25266.81594866  .00850250  39761-3  10302-2 0  9993,2 45194  53.0389  17.4948 0004655   2.2085 357.8968 16.07608177310398
STARLINK-1244,45196,53.0333,0.0007289,16.17892707,220.46635876429536,230.09281946790816,1 45196U 20012U   25267.77861924  .01440448  17392-2  87856-3 0  9992,2 45196  53.0333  11.4614 0007289 345.2908  14.7916 16.17892707310716
STARLINK-1269,45197,53.0541,0.00014,15.06401214,546.2382889284163,548.1773854828334,1 45197U 20012V   25267.20185089  .00002311  00000+0  17396-3 0  9991,2 45197  53.0541  74.0143 0001400  82.6531 277.4617 15.06401214309713
STARLINK-1154,45198,53.0546,0.0001264,15.0640023,546.3354890528708,548.0862169901156,1 45198U 20012W   25267.12628922  .00002131  00000+0  16190-3 0  9992,2 45198  53.0546  54.3494 0001264  79.7225 280.3906 15.06400230309951
STARLINK-1199,45201,53.0555,8.02e-05,15.06442712,546.5252524469925,547.636057358839,1 45201U 20012Z   25267.13730436  .00006449  00000+0  45092-3 0  9991,2 45201  53.0555  54.3015 0000802  76.3552 283.7526 15.06442712310013
STARLINK-1206,45204,53.0311,0.0007907,16.29409903,188.92940560609986,199.32278246300575,1 45204U 20012AC  25267.70171472  .04323655  12094-4  96859-3 0  9999,2 45204  53.0311 353.0013 0007907 309.4167  50.6174 16.29409903310930
STARLINK-1208,45205,53.0397,0.0001316,16.04659523,260.6604605399425,262.40802201064616,1 45205U 20012AD  25267.71328062  .01644790  17654-2  24457-2 0  9992,2 45205  53.0397 355.1297 0001316  30.7566 329.3543 16.04659523310919
STARLINK-1209,45206,53.0553,0.0001703,15.06399346,546.0341751540409,548.3929495555776,1 45206U 20012AE  25267.08020872  .00002449  00000+0  18326-3 0  9992,2 45206  53.0553  34.5601 0001703  75.8833 284.2346 15.06399346309337
STARLINK-1210,45207,53.03,0.0011509,15.47500018,416.21352725730867,431.8707832368573,1 45207U 20012AF  25267.33336806  .00112624  00000+0  21296-2 0  9994,2 45207  53.0300   5.3588 0011509 273.1027  23.5433 15.47500018  5813
STARLINK-1231,45212,53.0526,0.0002755,15.09156497,536.8705437502022,540.6817628976842,1 45212U 20012AL  25267.12875490  .00055413  00000+0  34422-2 0  9991,2 45212  53.0526  53.8226 0002755 189.4657 170.6282 15.09156497309973
STARLINK-1271,45217,53.0553,0.000141,15.06419239,546.1761279690263,548.1290596344779,1 45217U 20012AR  25266.72451543  .00002939  00000+0  21601-3 0  9991,2 45217  53.0553  56.1529 0001410  94.6461 265.4689 15.06419239309952
STARLINK-1191,45222,53.0556,0.000131,15.06392529,546.3272319112102,548.1416792325708,1 45222U 20012AW  25266.66738507 -.00000694  00000+0 -27702-4 0  9995,2 45222  53.0556  36.4086 0001310  79.9452 280.1685 15.06392529310229
STARLINK-1212,45223,53.0574,0.0001396,15.06405901,546.2266961482856,548.1602484161467,1 45223U 20012AX  25267.08397220 -.00003109  00000+0 -18987-3 0  9994,2 45223  53.0574  35.1927 0001396  81.5302 278.5845 15.06405901310281
STARLINK-1215,45225,53.0557,8.93e-05,15.06433101,546.4916854314151,547.7285345652608,1 45225U 20012AZ  25266.64157504  .00010899  00000+0  74881-3 0  9993,2 45225  53.0557  36.5245 0000893  78.3408 281.7681 15.06433101310179
STARLINK-1217,45226,53.0452,0.0001172,15.90016492,301.4537260633115,303.01960565058835,1 45226U 20012BA  25267.33336806  .00265123  00000+0  84022-3 0  9995,2 45226  53.0452 342.5259 0001172 287.7879 314.9083 15.90016492  5908
